{
  "type": "FeatureCollection",
  "features": [
    {
      "type": "Feature",
      "properties": {
        "norad_id": 38496,
        "name": "FENGYUN 1C DEB",
        "group": "fengyun-1c-debris",
        "lat": -45.271127674620004,
        "lon": 157.4143210896134,
        "alt_km": 922.0638534358868,
        "timestamp": "2025-12-02T08:59:33.004134+00:00",
        "meta_object_name": "FENGYUN 1C DEB",
        "meta_object_id": "1999-025ESF",
        "meta_epoch": "2025-11-21T06:14:04.243776",
        "meta_mean_motion": 14.09910223,
        "meta_eccentricity": 0.00783122,
        "meta_inclination": 98.762,
        "meta_ra_of_asc_node": 335.5484,
        "meta_arg_of_pericenter": 67.5314,
        "meta_mean_anomaly": 293.4126,
        "meta_ephemeris_type": 0,
        "meta_classification_type": "U",
        "meta_norad_cat_id": 38496,
        "meta_element_set_no": 999,
        "meta_rev_at_epoch": 80718,
        "meta_bstar": 0.00099539788,
        "meta_mean_motion_dot": 1.761e-05,
        "meta_mean_motion_ddot": 0,
        "tle_line1": "1 38496U 99025ESF 25325.25977134  .00001761  00000+0  99540-3 0  9994",
        "tle_line2": "2 38496  98.7620 335.5484 0078312  67.5314 293.4126 14.09910223807185"
      },
      "geometry": {
        "type": "Point",
        "coordinates": [
          157.4143210896134,
          -45.271127674620004
        ]
      }
    },
    {
      "type": "Feature",
      "properties": {
        "norad_id": 38498,
        "name": "FENGYUN 1C DEB",
        "group": "fengyun-1c-debris",
        "lat": -53.15222987692145,
        "lon": 10.960812476163238,
        "alt_km": 1645.2530538806714,
        "timestamp": "2025-12-02T08:59:33.004144+00:00",
        "meta_object_name": "FENGYUN 1C DEB",
        "meta_object_id": "1999-025ESH",
        "meta_epoch": "2025-11-28T07:08:06.502272",
        "meta_mean_motion": 12.96576725,
        "meta_eccentricity": 0.05570408,
        "meta_inclination": 99.7006,
        "meta_ra_of_asc_node": 354.1331,
        "meta_arg_of_pericenter": 105.0179,
        "meta_mean_anomaly": 261.3245,
        "meta_ephemeris_type": 0,
        "meta_classification_type": "U",
        "meta_norad_cat_id": 38498,
        "meta_element_set_no": 999,
        "meta_rev_at_epoch": 53556,
        "meta_bstar": 0.0025758927,
        "meta_mean_motion_dot": 1.475e-05,
        "meta_mean_motion_ddot": 0,
        "tle_line1": "1 38498U 99025ESH 25332.29729748  .00001475  00000+0  25759-2 0  9996",
        "tle_line2": "2 38498  99.7006 354.1331 0557040 105.0179 261.3245 12.96576725535566"
      },
      "geometry": {
        "type": "Point",
        "coordinates": [
          10.960812476163238,
          -53.15222987692145
        ]
      }
    },
    {
      "type": "Feature",
      "properties": {
        "norad_id": 38510,
        "name": "FENGYUN 1C DEB",
        "group": "fengyun-1c-debris",
        "lat": 65.43153873673225,
        "lon": -33.48444765394208,
        "alt_km": 868.3949044153278,
        "timestamp": "2025-12-02T08:59:33.004154+00:00",
        "meta_object_name": "FENGYUN 1C DEB",
        "meta_object_id": "1999-025ESV",
        "meta_epoch": "2025-11-26T06:32:42.236448",
        "meta_mean_motion": 14.13269737,
        "meta_eccentricity": 0.00981735,
        "meta_inclination": 98.6025,
        "meta_ra_of_asc_node": 339.985,
        "meta_arg_of_pericenter": 196.9618,
        "meta_mean_anomaly": 162.8266,
        "meta_ephemeris_type": 0,
        "meta_classification_type": "U",
        "meta_norad_cat_id": 38510,
        "meta_element_set_no": 999,
        "meta_rev_at_epoch": 88437,
        "meta_bstar": 0.0006714866,
        "meta_mean_motion_dot": 1.276e-05,
        "meta_mean_motion_ddot": 0,
        "tle_line1": "1 38510U 99025ESV 25330.27271107  .00001276  00000+0  67149-3 0  9997",
        "tle_line2": "2 38510  98.6025 339.9850 0098173 196.9618 162.8266 14.13269737884378"
      },
      "geometry": {
        "type": "Point",
        "coordinates": [
          -33.48444765394208,
          65.43153873673225
        ]
      }
    },
    {
      "type": "Feature",
      "properties": {
        "norad_id": 38512,
        "name": "FENGYUN 1C DEB",
        "group": "fengyun-1c-debris",
        "lat": 43.36488537823047,
        "lon": 47.45035559627,
        "alt_km": 815.600247629086,
        "timestamp": "2025-12-02T08:59:33.004168+00:00",
        "meta_object_name": "FENGYUN 1C DEB",
        "meta_object_id": "1999-025ESX",
        "meta_epoch": "2025-11-24T15:04:33.900960",
        "meta_mean_motion": 13.73922037,
        "meta_eccentricity": 0.02258852,
        "meta_inclination": 98.3776,
        "meta_ra_of_asc_node": 212.6517,
        "meta_arg_of_pericenter": 154.1881,
        "meta_mean_anomaly": 207.075,
        "meta_ephemeris_type": 0,
        "meta_classification_type": "U",
        "meta_norad_cat_id": 38512,
        "meta_element_set_no": 999,
        "meta_rev_at_epoch": 59321,
        "meta_bstar": 0.0011065478,
        "meta_mean_motion_dot": 1.212e-05,
        "meta_mean_motion_ddot": 0,
        "tle_line1": "1 38512U 99025ESX 25328.62817015  .00001212  00000+0  11065-2 0  9994",
        "tle_line2": "2 38512  98.3776 212.6517 0225885 154.1881 207.0750 13.73922037593211"
      },
      "geometry": {
        "type": "Point",
        "coordinates": [
          47.45035559627,
          43.36488537823047
        ]
      }
    },
    {
      "type": "Feature",
      "properties": {
        "norad_id": 38513,
        "name": "FENGYUN 1C DEB",
        "group": "fengyun-1c-debris",
        "lat": -35.063330151845676,
        "lon": 52.86489044345064,
        "alt_km": 570.7051903103265,
        "timestamp": "2025-12-02T08:59:33.004178+00:00",
        "meta_object_name": "FENGYUN 1C DEB",
        "meta_object_id": "1999-025ESY",
        "meta_epoch": "2025-11-05T11:10:23.483712",
        "meta_mean_motion": 14.74191137,
        "meta_eccentricity": 0.02562234,
        "meta_inclination": 97.6286,
        "meta_ra_of_asc_node": 212.8757,
        "meta_arg_of_pericenter": 7.2303,
        "meta_mean_anomaly": 353.249,
        "meta_ephemeris_type": 0,
        "meta_classification_type": "U",
        "meta_norad_cat_id": 38513,
        "meta_element_set_no": 999,
        "meta_rev_at_epoch": 63108,
        "meta_bstar": 0.0018759347,
        "meta_mean_motion_dot": 0.0002109,
        "meta_mean_motion_ddot": 0,
        "tle_line1": "1 38513U 99025ESY 25309.46554958  .00021090  00000+0  18759-2 0  9993",
        "tle_line2": "2 38513  97.6286 212.8757 0256223   7.2303 353.2490 14.74191137631089"
      },
      "geometry": {
        "type": "Point",
        "coordinates": [
          52.86489044345064,
          -35.063330151845676
        ]
      }
    },
    {
      "type": "Feature",
      "properties": {
        "norad_id": 38514,
        "name": "FENGYUN 1C DEB",
        "group": "fengyun-1c-debris",
        "lat": 63.92098530005575,
        "lon": -156.24112659569778,
        "alt_km": 765.0830835371344,
        "timestamp": "2025-12-02T08:59:33.004190+00:00",
        "meta_object_name": "FENGYUN 1C DEB",
        "meta_object_id": "1999-025ESZ",
        "meta_epoch": "2025-11-30T20:50:31.556256",
        "meta_mean_motion": 14.15152133,
        "meta_eccentricity": 0.0272829,
        "meta_inclination": 98.0565,
        "meta_ra_of_asc_node": 5.5748,
        "meta_arg_of_pericenter": 48.6771,
        "meta_mean_anomaly": 313.754,
        "meta_ephemeris_type": 0,
        "meta_classification_type": "U",
        "meta_norad_cat_id": 38514,
        "meta_element_set_no": 999,
        "meta_rev_at_epoch": 87828,
        "meta_bstar": 0.0055008692,
        "meta_mean_motion_dot": 0.000153,
        "meta_mean_motion_ddot": 0,
        "tle_line1": "1 38514U 99025ESZ 25334.86842079  .00015300  00000+0  55009-2 0  9996",
        "tle_line2": "2 38514  98.0565   5.5748 0272829  48.6771 313.7540 14.15152133878280"
      },
      "geometry": {
        "type": "Point",
        "coordinates": [
          -156.24112659569778,
          63.92098530005575
        ]
      }
    },
    {
      "type": "Feature",
      "properties": {
        "norad_id": 38516,
        "name": "FENGYUN 1C DEB",
        "group": "fengyun-1c-debris",
        "lat": 66.50905269011444,
        "lon": 160.51557884775184,
        "alt_km": 714.2654949392881,
        "timestamp": "2025-12-02T08:59:33.004200+00:00",
        "meta_object_name": "FENGYUN 1C DEB",
        "meta_object_id": "1999-025ETB",
        "meta_epoch": "2025-11-26T05:06:26.224128",
        "meta_mean_motion": 14.34032487,
        "meta_eccentricity": 0.0110561,
        "meta_inclination": 98.442,
        "meta_ra_of_asc_node": 314.5187,
        "meta_arg_of_pericenter": 174.0914,
        "meta_mean_anomaly": 186.1605,
        "meta_ephemeris_type": 0,
        "meta_classification_type": "U",
        "meta_norad_cat_id": 38516,
        "meta_element_set_no": 999,
        "meta_rev_at_epoch": 84636,
        "meta_bstar": 0.00013606845,
        "meta_mean_motion_dot": 3.63e-06,
        "meta_mean_motion_ddot": 0,
        "tle_line1": "1 38516U 99025ETB 25330.21280352  .00000363  00000+0  13607-3 0  9995",
        "tle_line2": "2 38516  98.4420 314.5187 0110561 174.0914 186.1605 14.34032487846361"
      },
      "geometry": {
        "type": "Point",
        "coordinates": [
          160.51557884775184,
          66.50905269011444
        ]
      }
    }
  ]
}